{
    "links": {
        "self": "http://www.neowsapp.com/rest/v1/neo/3408593?api_key=iIulBulltgU6a56xZRHN4H3l9WmuAYTsLGpBGhQ2"
    },
    "id": "3408593",
    "neo_reference_id": "3408593",
    "name": "(2008 GB4)",
    "designation": "2008 GB4",
    "nasa_jpl_url": "http://ssd.jpl.nasa.gov/sbdb.cgi?sstr=3408593",
    "absolute_magnitude_h": 23.2,
    "estimated_diameter": {
        "kilometers": {
            "estimated_diameter_min": 0.0608912622,
            "estimated_diameter_max": 0.1361570015
        },
        "meters": {
            "estimated_diameter_min": 60.8912622106,
            "estimated_diameter_max": 136.1570015386
        },
        "miles": {
            "estimated_diameter_min": 0.0378360645,
            "estimated_diameter_max": 0.0846040122
        },
        "feet": {
            "estimated_diameter_min": 199.7744887109,
            "estimated_diameter_max": 446.7093369279
        }
    },
    "is_potentially_hazardous_asteroid": false,
    "close_approach_data": [
        {
            "close_approach_date": "1921-03-20",
            "close_approach_date_full": "1921-Mar-20 18:06",
            "epoch_date_close_approach": -1539496440000,
            "relative_velocity": {
                "kilometers_per_second": "18.8904150886",
                "kilometers_per_hour": "68005.4943190928",
                "miles_per_hour": "42255.9695117719"
            },
            "miss_distance": {
                "astronomical": "0.4578852473",
                "lunar": "178.1173611997",
                "kilometers": "68498657.700503251",
                "miles": "42563092.2182808238"
            },
            "orbiting_body": "Earth"
        },
        {
            "close_approach_date": "2008-04-09",
            "close_approach_date_full": "2008-Apr-09 23:25",
            "epoch_date_close_approach": 1207783500000,
            "relative_velocity": {
                "kilometers_per_second": "16.8762551988",
                "kilometers_per_hour": "60754.518715761",
                "miles_per_hour": "37750.4952542461"
            },
            "miss_distance": {
                "astronomical": "0.0469597844",
                "lunar": "18.2673561316",
                "kilometers": "7025083.721899228",
                "miles": "4365184.6084882264"
            },
            "orbiting_body": "Earth"
        }
    ],
    "orbital_data": {
        "orbit_id": "13",
        "orbit_determination_date": "2017-04-06 09:03:44",
        "first_observation_date": "2008-04-09",
        "last_observation_date": "2008-05-04",
        "data_arc_in_days": 25,
        "observations_used": 46,
        "orbit_uncertainty": "8",
        "minimum_orbit_intersection": ".0331349",
        "jupiter_tisserand_invariant": "4.639",
        "epoch_osculation": "2454570.5",
        "eccentricity": ".2706115242023538",
        "semi_major_axis": "1.375773589815092",
        "inclination": "30.05067189738665",
        "ascending_node_longitude": "199.5710137115196",
        "orbital_period": "589.4118719720838",
        "perihelion_distance": "1.003473401717886",
        "perihelion_argument": "328.7399712774842",
        "aphelion_distance": "1.748073777912297",
        "perihelion_time": "2454538.794571947679",
        "mean_anomaly": "19.36498845984588",
        "mean_motion": ".6107783319591",
        "equinox": "J2000",
        "orbit_class": {
            "orbit_class_type": "APO",
            "orbit_class_description": "Near-Earth asteroid orbits which cross the Earth’s orbit similar to that of 1862 Apollo",
            "orbit_class_range": "a (semi-major axis) > 1.0 AU; q (perihelion) < 1.017 AU"
        }
    },
    "is_sentry_object": false
}